2024-092F               
1 59778U 24092F   26068.91303411  .00025723  00000+0  79143-3 0  9992
2 59778  97.6418 198.4543 0008646 142.6506 217.5339 15.33614440100535
STARLINK-35089          
1 65484U 25195AC  26068.91414344  .00027606  00000+0  94090-3 0  9996
2 65484  53.1615 257.4280 0001126 333.8824  26.2120 15.30194313 30005
